<?xml version="1.0" encoding="UTF-8"?>
<ndm xmlns:xsi="http://www.w3.org/2001/XMLSchema-instance" xsi:noNamespaceSchemaLocation="https://sanaregistry.org/r/ndmxml_unqualified/ndmxml-2.0.0-master-2.0.xsd">
<omm id="CCSDS_OMM_VERS" version="2.0">
<header><CREATION_DATE/><ORIGINATOR/></header><body><segment><metadata><OBJECT_NAME>KUIPER-00133</OBJECT_NAME><OBJECT_ID>2025-217C</OBJECT_ID><CENTER_NAME>EARTH</CENTER_NAME><REF_FRAME>TEME</REF_FRAME><TIME_SYSTEM>UTC</TIME_SYSTEM><MEAN_ELEMENT_THEORY>SGP4</MEAN_ELEMENT_THEORY></metadata><data><meanElements><EPOCH>2025-10-25T06:00:02.000160</EPOCH><MEAN_MOTION>15.29049159</MEAN_MOTION><ECCENTRICITY>.00077574</ECCENTRICITY><INCLINATION>51.8686</INCLINATION><RA_OF_ASC_NODE>299.3849</RA_OF_ASC_NODE><ARG_OF_PERICENTER>217.9538</ARG_OF_PERICENTER><MEAN_ANOMALY>324.0998</MEAN_ANOMALY></meanElements><tleParameters><EPHEMERIS_TYPE>0</EPHEMERIS_TYPE><CLASSIFICATION_TYPE>U</CLASSIFICATION_TYPE><NORAD_CAT_ID>65764</NORAD_CAT_ID><ELEMENT_SET_NO>999</ELEMENT_SET_NO><REV_AT_EPOCH>521</REV_AT_EPOCH><BSTAR>.68569687E-3</BSTAR><MEAN_MOTION_DOT>.19326E-3</MEAN_MOTION_DOT><MEAN_MOTION_DDOT>0</MEAN_MOTION_DDOT></tleParameters></data></segment></body></omm>
<omm id="CCSDS_OMM_VERS" version="2.0">
<header><CREATION_DATE/><ORIGINATOR/></header><body><segment><metadata><OBJECT_NAME>KUIPER-00139</OBJECT_NAME><OBJECT_ID>2025-217D</OBJECT_ID><CENTER_NAME>EARTH</CENTER_NAME><REF_FRAME>TEME</REF_FRAME><TIME_SYSTEM>UTC</TIME_SYSTEM><MEAN_ELEMENT_THEORY>SGP4</MEAN_ELEMENT_THEORY></metadata><data><meanElements><EPOCH>2025-10-25T04:35:33.649152</EPOCH><MEAN_MOTION>15.35626323</MEAN_MOTION><ECCENTRICITY>.00064811</ECCENTRICITY><INCLINATION>51.8676</INCLINATION><RA_OF_ASC_NODE>299.3561</RA_OF_ASC_NODE><ARG_OF_PERICENTER>208.8068</ARG_OF_PERICENTER><MEAN_ANOMALY>151.2561</MEAN_ANOMALY></meanElements><tleParameters><EPHEMERIS_TYPE>0</EPHEMERIS_TYPE><CLASSIFICATION_TYPE>U</CLASSIFICATION_TYPE><NORAD_CAT_ID>65765</NORAD_CAT_ID><ELEMENT_SET_NO>999</ELEMENT_SET_NO><REV_AT_EPOCH>457</REV_AT_EPOCH><BSTAR>.11024177E-2</BSTAR><MEAN_MOTION_DOT>.38608E-3</MEAN_MOTION_DOT><MEAN_MOTION_DDOT>0</MEAN_MOTION_DDOT></tleParameters></data></segment></body></omm>
<omm id="CCSDS_OMM_VERS" version="2.0">
<header><CREATION_DATE/><ORIGINATOR/></header><body><segment><metadata><OBJECT_NAME>KUIPER-00142</OBJECT_NAME><OBJECT_ID>2025-217E</OBJECT_ID><CENTER_NAME>EARTH</CENTER_NAME><REF_FRAME>TEME</REF_FRAME><TIME_SYSTEM>UTC</TIME_SYSTEM><MEAN_ELEMENT_THEORY>SGP4</MEAN_ELEMENT_THEORY></metadata><data><meanElements><EPOCH>2025-10-25T07:10:38.727840</EPOCH><MEAN_MOTION>15.36769741</MEAN_MOTION><ECCENTRICITY>.0002984</ECCENTRICITY><INCLINATION>51.8695</INCLINATION><RA_OF_ASC_NODE>298.5895</RA_OF_ASC_NODE><ARG_OF_PERICENTER>156.8276</ARG_OF_PERICENTER><MEAN_ANOMALY>203.2845</MEAN_ANOMALY></meanElements><tleParameters><EPHEMERIS_TYPE>0</EPHEMERIS_TYPE><CLASSIFICATION_TYPE>U</CLASSIFICATION_TYPE><NORAD_CAT_ID>65766</NORAD_CAT_ID><ELEMENT_SET_NO>999</ELEMENT_SET_NO><REV_AT_EPOCH>459</REV_AT_EPOCH><BSTAR>.10615284E-2</BSTAR><MEAN_MOTION_DOT>.38544E-3</MEAN_MOTION_DOT><MEAN_MOTION_DDOT>0</MEAN_MOTION_DDOT></tleParameters></data></segment></body></omm>
<omm id="CCSDS_OMM_VERS" version="2.0">
<header><CREATION_DATE/><ORIGINATOR/></header><body><segment><metadata><OBJECT_NAME>KUIPER-00145</OBJECT_NAME><OBJECT_ID>2025-217F</OBJECT_ID><CENTER_NAME>EARTH</CENTER_NAME><REF_FRAME>TEME</REF_FRAME><TIME_SYSTEM>UTC</TIME_SYSTEM><MEAN_ELEMENT_THEORY>SGP4</MEAN_ELEMENT_THEORY></metadata><data><meanElements><EPOCH>2025-10-25T07:15:45.215424</EPOCH><MEAN_MOTION>15.36528686</MEAN_MOTION><ECCENTRICITY>.00034999</ECCENTRICITY><INCLINATION>51.8711</INCLINATION><RA_OF_ASC_NODE>298.6138</RA_OF_ASC_NODE><ARG_OF_PERICENTER>174.2563</ARG_OF_PERICENTER><MEAN_ANOMALY>185.8465</MEAN_ANOMALY></meanElements><tleParameters><EPHEMERIS_TYPE>0</EPHEMERIS_TYPE><CLASSIFICATION_TYPE>U</CLASSIFICATION_TYPE><NORAD_CAT_ID>65767</NORAD_CAT_ID><ELEMENT_SET_NO>999</ELEMENT_SET_NO><REV_AT_EPOCH>459</REV_AT_EPOCH><BSTAR>.14882245E-2</BSTAR><MEAN_MOTION_DOT>.53884E-3</MEAN_MOTION_DOT><MEAN_MOTION_DDOT>0</MEAN_MOTION_DDOT></tleParameters></data></segment></body></omm>
<omm id="CCSDS_OMM_VERS" version="2.0">
<header><CREATION_DATE/><ORIGINATOR/></header><body><segment><metadata><OBJECT_NAME>KUIPER-00147</OBJECT_NAME><OBJECT_ID>2025-217G</OBJECT_ID><CENTER_NAME>EARTH</CENTER_NAME><REF_FRAME>TEME</REF_FRAME><TIME_SYSTEM>UTC</TIME_SYSTEM><MEAN_ELEMENT_THEORY>SGP4</MEAN_ELEMENT_THEORY></metadata><data><meanElements><EPOCH>2025-10-25T04:33:02.627136</EPOCH><MEAN_MOTION>15.35718458</MEAN_MOTION><ECCENTRICITY>.00065756</ECCENTRICITY><INCLINATION>51.8660</INCLINATION><RA_OF_ASC_NODE>299.3421</RA_OF_ASC_NODE><ARG_OF_PERICENTER>202.6742</ARG_OF_PERICENTER><MEAN_ANOMALY>157.3954</MEAN_ANOMALY></meanElements><tleParameters><EPHEMERIS_TYPE>0</EPHEMERIS_TYPE><CLASSIFICATION_TYPE>U</CLASSIFICATION_TYPE><NORAD_CAT_ID>65768</NORAD_CAT_ID><ELEMENT_SET_NO>999</ELEMENT_SET_NO><REV_AT_EPOCH>457</REV_AT_EPOCH><BSTAR>.99728422E-3</BSTAR><MEAN_MOTION_DOT>.34977E-3</MEAN_MOTION_DOT><MEAN_MOTION_DDOT>0</MEAN_MOTION_DDOT></tleParameters></data></segment></body></omm>
<omm id="CCSDS_OMM_VERS" version="2.0">
<header><CREATION_DATE/><ORIGINATOR/></header><body><segment><metadata><OBJECT_NAME>KUIPER-00148</OBJECT_NAME><OBJECT_ID>2025-217H</OBJECT_ID><CENTER_NAME>EARTH</CENTER_NAME><REF_FRAME>TEME</REF_FRAME><TIME_SYSTEM>UTC</TIME_SYSTEM><MEAN_ELEMENT_THEORY>SGP4</MEAN_ELEMENT_THEORY></metadata><data><meanElements><EPOCH>2025-10-25T06:27:03.312576</EPOCH><MEAN_MOTION>15.34905764</MEAN_MOTION><ECCENTRICITY>.00092446</ECCENTRICITY><INCLINATION>51.8619</INCLINATION><RA_OF_ASC_NODE>299.1084</RA_OF_ASC_NODE><ARG_OF_PERICENTER>219.1736</ARG_OF_PERICENTER><MEAN_ANOMALY>140.8581</MEAN_ANOMALY></meanElements><tleParameters><EPHEMERIS_TYPE>0</EPHEMERIS_TYPE><CLASSIFICATION_TYPE>U</CLASSIFICATION_TYPE><NORAD_CAT_ID>65769</NORAD_CAT_ID><ELEMENT_SET_NO>999</ELEMENT_SET_NO><REV_AT_EPOCH>458</REV_AT_EPOCH><BSTAR>.114668E-2</BSTAR><MEAN_MOTION_DOT>.39282E-3</MEAN_MOTION_DOT><MEAN_MOTION_DDOT>0</MEAN_MOTION_DDOT></tleParameters></data></segment></body></omm>
<omm id="CCSDS_OMM_VERS" version="2.0">
<header><CREATION_DATE/><ORIGINATOR/></header><body><segment><metadata><OBJECT_NAME>KUIPER-00150</OBJECT_NAME><OBJECT_ID>2025-217J</OBJECT_ID><CENTER_NAME>EARTH</CENTER_NAME><REF_FRAME>TEME</REF_FRAME><TIME_SYSTEM>UTC</TIME_SYSTEM><MEAN_ELEMENT_THEORY>SGP4</MEAN_ELEMENT_THEORY></metadata><data><meanElements><EPOCH>2025-10-25T06:00:02.000160</EPOCH><MEAN_MOTION>15.33149322</MEAN_MOTION><ECCENTRICITY>.00088186</ECCENTRICITY><INCLINATION>51.8616</INCLINATION><RA_OF_ASC_NODE>299.1779</RA_OF_ASC_NODE><ARG_OF_PERICENTER>211.6882</ARG_OF_PERICENTER><MEAN_ANOMALY>52.1076</MEAN_ANOMALY></meanElements><tleParameters><EPHEMERIS_TYPE>0</EPHEMERIS_TYPE><CLASSIFICATION_TYPE>U</CLASSIFICATION_TYPE><NORAD_CAT_ID>65770</NORAD_CAT_ID><ELEMENT_SET_NO>999</ELEMENT_SET_NO><REV_AT_EPOCH>413</REV_AT_EPOCH><BSTAR>-.1513371E-1</BSTAR><MEAN_MOTION_DOT>-.464063E-2</MEAN_MOTION_DOT><MEAN_MOTION_DDOT>0</MEAN_MOTION_DDOT></tleParameters></data></segment></body></omm>
<omm id="CCSDS_OMM_VERS" version="2.0">
<header><CREATION_DATE/><ORIGINATOR/></header><body><segment><metadata><OBJECT_NAME>KUIPER-00151</OBJECT_NAME><OBJECT_ID>2025-217K</OBJECT_ID><CENTER_NAME>EARTH</CENTER_NAME><REF_FRAME>TEME</REF_FRAME><TIME_SYSTEM>UTC</TIME_SYSTEM><MEAN_ELEMENT_THEORY>SGP4</MEAN_ELEMENT_THEORY></metadata><data><meanElements><EPOCH>2025-10-25T07:21:12.226464</EPOCH><MEAN_MOTION>15.36415730</MEAN_MOTION><ECCENTRICITY>.00049512</ECCENTRICITY><INCLINATION>51.8692</INCLINATION><RA_OF_ASC_NODE>298.6364</RA_OF_ASC_NODE><ARG_OF_PERICENTER>178.8789</ARG_OF_PERICENTER><MEAN_ANOMALY>181.2210</MEAN_ANOMALY></meanElements><tleParameters><EPHEMERIS_TYPE>0</EPHEMERIS_TYPE><CLASSIFICATION_TYPE>U</CLASSIFICATION_TYPE><NORAD_CAT_ID>65771</NORAD_CAT_ID><ELEMENT_SET_NO>999</ELEMENT_SET_NO><REV_AT_EPOCH>459</REV_AT_EPOCH><BSTAR>.11832657E-2</BSTAR><MEAN_MOTION_DOT>.4255E-3</MEAN_MOTION_DOT><MEAN_MOTION_DDOT>0</MEAN_MOTION_DDOT></tleParameters></data></segment></body></omm>

</ndm>
