KUIPER-00133            
1 65764U 25217C   25298.25002315  .00019326  00000+0  68570-3 0  9998
2 65764  51.8686 299.3849 0007757 217.9538 324.0998 15.29049159  5217
KUIPER-00139            
1 65765U 25217D   25298.19136168  .00038608  00000+0  11024-2 0  9991
2 65765  51.8676 299.3561 0006481 208.8068 151.2561 15.35626323  4573
KUIPER-00142            
1 65766U 25217E   25298.29905935  .00038544  00000+0  10615-2 0  9993
2 65766  51.8695 298.5895 0002984 156.8276 203.2845 15.36769741  4591
KUIPER-00145            
1 65767U 25217F   25298.30260666  .00053884  00000+0  14882-2 0  9995
2 65767  51.8711 298.6138 0003499 174.2563 185.8465 15.36528686  4591
KUIPER-00147            
1 65768U 25217G   25298.18961374  .00034977  00000+0  99728-3 0  9991
2 65768  51.8660 299.3421 0006575 202.6742 157.3954 15.35718458  4573
KUIPER-00148            
1 65769U 25217H   25298.26878834  .00039282  00000+0  11467-2 0  9996
2 65769  51.8619 299.1084 0009244 219.1736 140.8581 15.34905764  4584
KUIPER-00150            
1 65770U 25217J   25298.25002315 -.00464063  00000+0 -15134-1 0  9995
2 65770  51.8616 299.1779 0008818 211.6882  52.1076 15.33149322  4133
KUIPER-00151            
1 65771U 25217K   25298.30639151  .00042550  00000+0  11833-2 0  9990
2 65771  51.8692 298.6364 0004951 178.8789 181.2210 15.36415730  4592
